FLOCK 4G-10             
1 62670U 25009BP  26068.70827885  .00013952  00000+0  52624-3 0  9995
2 62670  97.3967 150.5883 0003469 341.4844  18.6269 15.27155944121340
STARLINK-34095          
1 63809U 25092F   26068.32148483  .00028491  00000+0  10401-2 0  9990
2 63809  42.9993 175.0353 0000772 247.0553 113.0217 15.27604081 48551
